"Proteus:Neptune VIII:S 1989 N 1" "Sol/Neptune"
{
	Class	"moon"
	Mesh	"proteus.cmod"
	Texture	"proteus.*"
	Radius	212
	OrbitFrame
	{
		EclipticJ2000	{ Center "Sol/Neptune" }
	}
	EllipticalOrbit
	{
		Epoch	2447763.5  # 1989 Aug 25
		Period	1.12231477
		SemiMajorAxis	117647
		Eccentricity	0.00053
		Inclination	28.908433
		AscendingNode	48.083589
		ArgOfPericenter	81.195458
		MeanAnomaly	34.162384
	}
	BodyFrame	{ EquatorJ2000 {} }
	UniformRotation
	{
		Period	26.93555448
		Inclination	47.09
		AscendingNode	29.27
		MeridianAngle	93.38
	}
	LunarLambert	0.5
	GeomAlbedo	0.096
	InfoURL	"https://en.wikipedia.org/wiki/Proteus_(moon)"
}

"Triton:Neptune I" "Sol/Neptune"
{
	Class	"moon"
	Texture	"triton.*"
	Color	[ 1.0 0.99024 0.96338 ]
	SemiAxes	[ 1354.6 1352.8 1352.4 ]
	Atmosphere
	{
		Height	32
		Mie	0.0003
		MieScaleHeight	8
		Absorption	[ 0.00200 0.00200 0.00250 ]
	}
	OrbitFrame
	{
		EclipticJ2000	{ Center "Sol/Neptune" }
	}
	EllipticalOrbit
	{
		Epoch	2447763.5  # 1989 Aug 25
		Period	5.8768541
		SemiMajorAxis	354759
		Eccentricity	0.000016
		Inclination	130.909204
		AscendingNode	213.174202
		ArgOfPericenter	278.113474
		MeanAnomaly	349.996104
	}
	BodyFrame	{ EquatorJ2000 {} }
	UniformRotation
	{
		Epoch	2447763.5  # 1989 Aug 25
		Inclination	110.44
		AscendingNode	206.17
		MeridianAngle	77.41
	}
	LunarLambert	0.5
	GeomAlbedo	0.719
	BondAlbedo	0.65
	InfoURL	"https://en.wikipedia.org/wiki/Triton_(moon)"
}

AltSurface "Limit of knowledge" "Sol/Neptune/Triton"
{
	Texture	"triton.*"
	OverlayTexture	"triton-lok-mask.*"
	LunarLambert	0.5
}

"Nereid:Neptune II" "Sol/Neptune"
{
	Class	"minormoon"
	Mesh	"roughsphere.cms"
	Texture	"asteroid.*"
	SemiAxes	[ 199 168 153 ]
	OrbitFrame
	{
		EclipticJ2000	{ Center "Sol/Neptune" }
	}
	EllipticalOrbit
	{
		Epoch	2447763.5  # 1989 Aug 25
		Period	359.396374
		SemiMajorAxis	5506217.008
		Eccentricity	0.753882
		Inclination	5.055101
		AscendingNode	319.892917
		ArgOfPericenter	296.451886
		MeanAnomaly	36.055860
	}
	UniformRotation
	{
		Period	11.594
	}
	LunarLambert	0.5
	GeomAlbedo	0.155
	InfoURL	"https://en.wikipedia.org/wiki/Nereid_(moon)"
}
